{
  "type": "FeatureCollection",
  "attribution": "\u00a9 OpenStreetMap contributors",
  "license": "https://opendatacommons.org/licenses/odbl/1-0/",
  "retrieved_date": "2026-10-08",
  "features": [
    {
      "type": "Feature",
      "properties": {
        "name": "Washington Square Park",
        "source": "https://www.openstreetmap.org/way/22899302"
      },
      "geometry": {
        "type": "Polygon",
        "coordinates": [
          [
            [
              -73.9965594,
              40.729649
            ],
            [
              -73.9965667,
              40.7296414
            ],
            [
              -73.9965717,
              40.7296361
            ],
            [
              -73.9965832,
              40.7296307
            ],
            [
              -73.9965971,
              40.7296307
            ],
            [
              -73.9966028,
              40.7296321
            ],
            [
              -73.9966186,
              40.729636
            ],
            [
              -73.9972229,
              40.729933
            ],
            [
              -73.997436,
              40.7300377
            ],
            [
              -73.9979786,
              40.7303043
            ],
            [
              -73.998105,
              40.7303665
            ],
            [
              -73.9987536,
              40.7306852
            ],
            [
              -73.9988773,
              40.730746
            ],
            [
              -73.9994859,
              40.731045
            ],
            [
              -73.9995048,
              40.7310543
            ],
            [
              -73.9995125,
              40.7310599
            ],
            [
              -73.9995149,
              40.7310616
            ],
            [
              -73.9995207,
              40.7310732
            ],
            [
              -73.999518,
              40.731086
            ],
            [
              -73.9995164,
              40.7310906
            ],
            [
              -73.999512,
              40.7310982
            ],
            [
              -73.9995,
              40.7311129
            ],
            [
              -73.9991151,
              40.731561
            ],
            [
              -73.9990348,
              40.7316563
            ],
            [
              -73.9986368,
              40.7321262
            ],
            [
              -73.9986285,
              40.7321356
            ],
            [
              -73.998616,
              40.7321423
            ],
            [
              -73.9986005,
              40.7321463
            ],
            [
              -73.9985827,
              40.7321448
            ],
            [
              -73.9985667,
              40.7321401
            ],
            [
              -73.9985538,
              40.732134
            ],
            [
              -73.9977524,
              40.7317424
            ],
            [
              -73.9971013,
              40.7314233
            ],
            [
              -73.9969375,
              40.7313443
            ],
            [
              -73.9969084,
              40.7313308
            ],
            [
              -73.9956907,
              40.7307352
            ],
            [
              -73.9956733,
              40.7307221
            ],
            [
              -73.9956656,
              40.7307113
            ],
            [
              -73.995666,
              40.7306999
            ],
            [
              -73.995669,
              40.7306926
            ],
            [
              -73.9956708,
              40.7306882
            ],
            [
              -73.9956814,
              40.7306743
            ],
            [
              -73.9960879,
              40.730201
            ],
            [
              -73.9961631,
              40.7301117
            ],
            [
              -73.9965594,
              40.729649
            ]
          ]
        ]
      }
    },
    {
      "type": "Feature",
      "properties": {
        "name": "Washington Square Arch",
        "source": "https://www.openstreetmap.org/way/248166269"
      },
      "geometry": {
        "type": "Polygon",
        "coordinates": [
          [
            [
              -73.9970293,
              40.731162
            ],
            [
              -73.9972203,
              40.7312544
            ],
            [
              -73.9971757,
              40.7313074
            ],
            [
              -73.9969847,
              40.7312151
            ],
            [
              -73.9970293,
              40.731162
            ]
          ]
        ]
      }
    },
    {
      "type": "Feature",
      "properties": {
        "name": "Washington Square Fountain",
        "source": "https://www.openstreetmap.org/way/959929617"
      },
      "geometry": {
        "type": "Polygon",
        "coordinates": [
          [
            [
              -73.997448,
              40.7309279
            ],
            [
              -73.9974824,
              40.7309253
            ],
            [
              -73.9975149,
              40.7309164
            ],
            [
              -73.9975435,
              40.7309017
            ],
            [
              -73.9975664,
              40.7308821
            ],
            [
              -73.9975823,
              40.7308588
            ],
            [
              -73.99759,
              40.7308333
            ],
            [
              -73.9975892,
              40.7308071
            ],
            [
              -73.9975799,
              40.7307818
            ],
            [
              -73.9975627,
              40.7307591
            ],
            [
              -73.9975386,
              40.7307403
            ],
            [
              -73.9975092,
              40.7307266
            ],
            [
              -73.9974762,
              40.7307189
            ],
            [
              -73.9974381,
              40.7307177
            ],
            [
              -73.9974012,
              40.7307244
            ],
            [
              -73.9973679,
              40.7307384
            ],
            [
              -73.997341,
              40.7307588
            ],
            [
              -73.9973223,
              40.7307839
            ],
            [
              -73.9973133,
              40.7308119
            ],
            [
              -73.9973147,
              40.7308407
            ],
            [
              -73.9973263,
              40.7308681
            ],
            [
              -73.9973473,
              40.7308922
            ],
            [
              -73.9973761,
              40.730911
            ],
            [
              -73.9974105,
              40.7309232
            ],
            [
              -73.997448,
              40.7309279
            ]
          ]
        ]
      }
    }
  ]
}
